FLOCK 3P-86             
1 41985U 17008AP  17345.80302906  .00001444  00000-0  63109-4 0  9997
2 41985  97.4778  46.7227 0006550 301.1470  58.9124 15.23709504 45409
